OBJECT_NAME,OBJECT_ID,EPOCH,MEAN_MOTION,ECCENTRICITY,INCLINATION,RA_OF_ASC_NODE,ARG_OF_PERICENTER,MEAN_ANOMALY,EPHEMERIS_TYPE,CLASSIFICATION_TYPE,NORAD_CAT_ID,ELEMENT_SET_NO,REV_AT_EPOCH,BSTAR,MEAN_MOTION_DOT,MEAN_MOTION_DDOT
FLOCK 4BE-31,2024-149W,2026-06-16T04:13:43.196160,15.44057891,.00012666,97.3803,252.4474,256.9567,103.1540,0,U,60488,999,10222,.37328804E-3,.16973E-3,0
FLOCK 4BE-20,2024-149X,2026-06-16T04:55:49.662624,15.38033993,.00024879,97.3702,249.2304,253.9819,106.1153,0,U,60489,999,10206,.28935734E-3,.10749E-3,0
FLOCK 4BE-23,2024-149Y,2026-06-16T04:41:25.175328,15.37651236,.0001989,97.3787,249.5964,263.8916,96.2102,0,U,60490,999,10204,.30013844E-3,.11015E-3,0
FLOCK 4BE-15,2024-149Z,2026-06-16T04:31:42.745152,15.59566831,.00030271,97.3689,252.5311,240.8572,119.2381,0,U,60491,999,10227,.95872229E-3,.76671E-3,0
FLOCK 4BE-17,2024-149AA,2026-06-16T04:20:35.131488,15.39759167,.00019951,97.3779,250.5419,240.1440,119.9607,0,U,60492,999,10210,.32669072E-3,.12854E-3,0
NUSAT-50 (NANCY ROMAN),2024-149AB,2026-06-16T04:29:42.873792,15.29841839,.0003367,97.3793,248.4498,176.8151,183.3112,0,U,60493,999,10197,.27308417E-3,.7818E-4,0
FLOCK 4BE-22,2024-149AC,2026-06-16T05:28:48.817920,15.41142714,.0002331,97.3738,250.7799,258.8951,101.2034,0,U,60494,999,10215,.33361717E-3,.13745E-3,0
FLOCK 4BE-34,2024-149AD,2026-06-16T04:20:00.610368,15.41132832,.00021409,97.3788,251.5531,273.0045,87.0956,0,U,60495,999,10217,.3119545E-3,.12841E-3,0
TYCHE,2024-149AE,2026-06-16T05:13:18.311520,15.25981733,.00006131,97.3757,245.0467,254.0526,106.0645,0,U,60496,999,10175,.1503995E-3,.3792E-4,0
FLOCK 4BE-32,2024-149AF,2026-06-16T05:09:09.730080,15.42127248,.00023835,97.3727,251.1310,263.6017,96.4959,0,U,60497,999,10218,.3166241E-3,.13474E-3,0
NUSAT-48 (HENRIETTA LEAVITT),2024-149AG,2026-06-16T04:13:20.069472,15.29846174,.00024082,97.3926,248.6800,282.6949,77.4022,0,U,60498,999,10198,.26916138E-3,.7705E-4,0
FLOCK 4BE-30,2024-149AH,2026-06-16T05:28:41.608704,15.56301448,.00040987,97.3782,252.7151,234.5456,125.5417,0,U,60499,999,10162,.15075294E-2,.107195E-2,0
NUSAT-49 (KLARA DAN VON NEUMANN),2024-149AJ,2026-06-16T05:16:01.112448,15.29932512,.00009993,97.3784,248.5136,346.4421,13.6792,0,U,60500,999,10198,.25047813E-3,.7183E-4,0
FLOCK 4BE-11,2024-149AK,2026-06-16T05:02:07.107072,15.42952660,.0002508,97.3705,251.3553,263.0632,97.0330,0,U,60501,999,10220,.31062991E-3,.13589E-3,0
YAM-7,2024-149AN,2026-06-16T04:59:38.444640,15.31808150,.0002007,97.3787,247.4613,313.0311,47.0762,0,U,60504,999,10190,.20106407E-3,.6097E-4,0
FLOCK 4BE-24,2024-149AP,2026-06-16T04:42:52.682976,15.43040650,.00027059,97.3723,251.5970,279.2650,80.8292,0,U,60505,999,10221,.37633779E-3,.16536E-3,0
LUR-1,2024-149AQ,2026-06-16T04:44:08.031552,15.30095163,.00028837,97.3742,246.0324,324.8243,35.2807,0,U,60506,999,10182,.19523415E-3,.561E-4,0
TANAGER-1,2024-149AR,2026-06-15T17:37:44.858208,15.44920515,.00040107,97.2612,260.9852,316.0052,44.0877,0,U,60507,999,10281,.87702047E-4,.4035E-4,0
EAGLEEYE,2024-149AS,2026-06-16T05:09:07.443936,15.70740411,.00042081,97.3731,260.4983,238.6404,121.4447,0,U,60508,999,10278,.64413538E-3,.80227E-3,0
FLOCK 4BE-29,2024-149AT,2026-06-16T04:59:26.093760,15.44121280,.00013999,97.3820,253.0656,299.2938,60.8170,0,U,60509,999,10226,.31306275E-3,.14246E-3,0
TRANSPORTER-11 OBJECT AU,2024-149AU,2026-06-16T05:07:14.114784,15.40200225,.00022576,97.3737,250.9257,295.2260,64.8752,0,U,60510,999,10216,.29783818E-3,.11882E-3,0
FLOCK 4BE-2,2024-149AV,2026-06-16T06:51:34.492896,15.52624974,.00033345,97.3842,254.5543,257.6318,102.4562,0,U,60511,999,10236,.80578676E-3,.49718E-3,0
FLOCK 4BE-13,2024-149AW,2026-06-16T04:22:44.657184,15.41865063,.00028602,97.3728,251.5831,265.5801,94.5119,0,U,60512,999,10221,.26904638E-3,.11334E-3,0
FLOCK 4BE-27,2024-149AX,2026-06-16T05:11:26.317248,15.34432094,.00025497,97.3830,249.0666,321.5091,38.5970,0,U,60513,999,10199,.22214202E-3,.7328E-4,0
FLOCK 4BE-9,2024-149AY,2026-06-16T04:20:28.639392,15.40771339,.00013914,97.3798,251.4423,303.5107,56.6007,0,U,60514,999,10216,.3253545E-3,.13237E-3,0
FLOCK 4BE-6,2024-149BA,2026-06-16T05:00:45.689760,15.39552291,.00020576,97.3798,250.8311,300.4978,59.6064,0,U,60516,999,10212,.28666734E-3,.11191E-3,0
FLOCK 4BE-14,2024-149BB,2026-06-16T04:38:38.176224,15.40966782,.00030422,97.3703,250.9507,297.4122,62.6815,0,U,60517,999,10217,.34145059E-3,.13989E-3,0
FLOCK 4BE-1,2024-149BC,2026-06-16T05:03:03.383712,15.42573409,.00028208,97.3787,252.2416,293.9500,66.1452,0,U,60518,999,10222,.33019231E-3,.14269E-3,0
FLOCK 4BE-28,2024-149BD,2026-06-16T05:25:37.748640,15.44883085,.00029267,97.3755,252.9788,288.3049,71.7881,0,U,60519,999,10229,.32462273E-3,.15166E-3,0
IPERDRONE.0,2024-149BE,2026-06-16T05:17:39.412320,15.66529048,.00035617,97.3783,260.3844,226.9330,133.1632,0,U,60520,999,10276,.62720883E-3,.65654E-3,0
TRANSPORTER-11 OBJECT BF,2024-149BF,2026-06-16T05:52:51.199392,15.84353019,.00059719,97.3763,263.1105,234.3640,125.7074,0,U,60521,999,10293,.97933087E-3,.22696E-2,0
CONNECTA IOT-2,2024-149BG,2026-06-16T04:41:03.063840,15.23968139,.00056246,97.3842,245.3556,341.7292,18.3743,0,U,60522,999,10174,.15284251E-3,.3628E-4,0
PTD-R (TYVAK-0127),2024-149BH,2026-06-15T02:37:46.472160,16.40205066,.00146647,97.3587,267.1148,263.0313,96.9318,0,U,60523,999,10311,.54306142E-3,.8494645E-1,.2524939E-5
CONNECTA IOT-4,2024-149BJ,2026-06-16T05:36:56.520864,15.42110376,.00040227,97.3806,251.5926,289.4331,70.6481,0,U,60524,999,10218,.346862E-3,.14766E-3,0
ORESAT0.5,2024-149BK,2026-06-16T05:04:33.985344,15.45050170,.00040679,97.3730,253.1960,276.9796,83.0990,0,U,60525,999,10232,.35124671E-3,.16516E-3,0
DEIMOS,2024-149BL,2026-06-16T04:16:51.670848,15.44194188,.00040071,97.3788,253.3036,286.4352,73.6456,0,U,60526,999,10229,.34229132E-3,.15629E-3,0
CUAVA-2,2024-149BM,2026-06-16T04:06:28.678464,15.36098121,.00052273,97.3734,248.6884,299.7094,60.3629,0,U,60527,999,10201,.29335668E-3,.1024E-3,0
ERNST,2024-149BN,2026-06-16T04:40:15.556800,15.39189278,.00044569,97.3816,250.9064,303.4001,56.6817,0,U,60528,999,10212,.29614813E-3,.1143E-3,0
TORO,2024-149BQ,2026-06-16T07:17:13.274304,14.96424203,.00015867,97.6791,241.9880,81.9003,278.2398,0,U,60530,999,9982,.15938038E-3,.175E-4,0
HYPSO-2,2024-149BR,2026-06-16T04:46:57.306432,14.98785000,.00005117,97.6814,243.4749,28.0995,332.0256,0,U,60531,999,9990,.16068278E-3,.1878E-4,0
LEMU NGE,2024-149BS,2026-06-16T04:20:52.962720,14.94952890,.00021636,97.6846,242.1611,64.4789,295.6656,0,U,60532,999,9980,.12344791E-3,.1292E-4,0
LEMUR-2-STELLA,2024-149BT,2026-06-16T05:18:42.865344,15.11795483,.00017406,97.6744,249.6718,96.1577,263.9851,0,U,60533,999,10035,.55112839E-3,.9348E-4,0
SATELIOT_2,2024-149BU,2026-06-16T06:58:40.694592,14.96359638,.00021056,97.6832,242.2630,96.3461,263.8000,0,U,60534,999,9983,.20060505E-3,.2214E-4,0
NIGHTJAR,2024-149BV,2026-06-16T04:34:52.605696,14.99014342,.00013532,97.6846,243.9121,77.3821,282.7553,0,U,60535,999,14272,.16303123E-3,.1917E-4,0
LEMUR-2-MARHISYAM,2024-149BW,2026-06-16T06:25:12.441504,15.11245809,.00033228,97.6883,250.1662,119.6380,240.5181,0,U,60536,999,10034,.50760101E-3,.8474E-4,0
SATELIOT_4,2024-149BX,2026-06-16T07:14:31.956000,14.96668933,.00033194,97.6744,241.8022,62.8200,297.3360,0,U,60537,999,9984,.16006833E-3,.1769E-4,0
PICO-02A021,2024-149BY,2026-06-15T23:14:19.225248,15.03241779,.00049638,97.6752,245.8092,31.2057,328.9462,0,U,60538,999,9955,.3789323E-3,.5072E-4,0
ICEYE-X43,2024-149BZ,2026-06-16T03:52:11.053056,14.99611038,.00082026,97.6784,244.1397,87.8913,272.3250,0,U,60539,999,9996,.29731546E-3,.3603E-4,0
HAWK-10A,2024-149CA,2026-06-16T04:00:00.569664,14.96515280,.00050542,97.6898,243.0954,81.3004,278.8789,0,U,60540,999,9983,.18485208E-3,.2044E-4,0
UMBRA-09,2024-149CB,2026-06-16T05:03:09.809280,15.18018194,.00006091,97.6977,254.3989,274.6306,85.4857,0,U,60541,999,10057,.61858023E-3,.12525E-3,0
QPS-SAR-8 (AMATERU-IV),2024-149CC,2026-06-16T04:41:55.765248,15.04126787,.0004861,97.6665,246.3544,110.2325,249.9424,0,U,60542,999,10012,.26600445E-3,.3627E-4,0
ARCTIC WEATHER SATELLITE,2024-149CD,2026-06-16T03:30:32.474880,14.89805236,.00036265,97.6801,237.6417,106.0918,254.0700,0,U,60543,999,9914,.88814689E-4,.799E-5,0
CAPELLA-15 (ACADIA-5),2024-149CE,2026-06-16T04:23:08.140704,14.92389873,.00046894,97.6773,240.1110,80.7737,279.4012,0,U,60544,999,9970,.270107E-3,.271E-4,0
HAWK-10B,2024-149CF,2026-06-16T03:59:47.372064,14.96514207,.00070192,97.6818,242.4516,95.4696,264.7327,0,U,60545,999,9983,.16302019E-3,.1796E-4,0
ICEYE-X39,2024-149CG,2026-06-16T05:01:57.738720,14.99891593,.00051563,97.6764,244.2464,121.2528,238.9202,0,U,60546,999,9997,.23635046E-3,.2872E-4,0
UMBRA-10,2024-149CH,2026-06-16T05:02:31.413984,15.18018125,.00005683,97.6984,254.4261,70.6660,289.4635,0,U,60547,999,10058,.63402311E-3,.1284E-3,0
ICEYE-X33,2024-149CJ,2026-06-15T12:03:27.950976,15.00887084,.00015911,97.7215,245.6519,99.4442,260.6961,0,U,60548,999,9995,.33256737E-3,.4173E-4,0
ICEYE-X40,2024-149CK,2026-06-16T04:00:27.665568,14.97938368,.00066356,97.6818,243.6789,85.0065,275.1915,0,U,60549,999,9992,.20026796E-3,.2303E-4,0
SATELIOT_1,2024-149CL,2026-06-16T07:00:15.349248,14.98065054,.00083453,97.6753,243.2042,83.3372,276.8800,0,U,60550,999,9993,.21249713E-3,.2456E-4,0
BRO-14,2024-149CM,2026-06-16T04:36:40.792320,14.96174814,.00080539,97.6875,242.9878,99.2759,260.9373,0,U,60551,999,9984,.57452311E-4,.59E-5,0
SATELIOT_3,2024-149CN,2026-06-16T04:49:09.187392,14.98049769,.00058674,97.6816,243.9061,88.7192,271.4702,0,U,60552,999,9993,.14146514E-3,.1615E-4,0
BRO-15,2024-149CP,2026-06-16T04:11:23.792352,14.96163966,.00097124,97.6811,242.5729,91.3804,268.8530,0,U,60553,999,9985,.20525134E-3,.2256E-4,0
UM5-RIBAT,2024-149CQ,2026-06-15T22:32:05.856288,15.01069982,.0003565,97.6640,244.7562,63.8669,296.2921,0,U,60554,999,10000,.20723E-3,.2591E-4,0
UM5-EOSAT,2024-149CR,2026-06-16T04:08:05.578656,15.01523738,.00087739,97.6709,245.9198,117.5819,242.6298,0,U,60555,999,10006,.30328207E-3,.3868E-4,0
